1 44278U 19029AV  20023.58334491  .00020258  11218-4  78978-4 0  9997
2 44278  52.9930  34.9384 0021583  44.3166  64.3593 15.89177048 38617
1 44278U 19029AV  20023.91667824  .00279857  39485-4  94528-3 0  9998
2 44278  52.9929  33.2388 0021408  46.0597 170.7949 15.89131306 38674
1 44278U 19029AV  20024.25001157  .00006297  11061-4  32460-4 0  9991
2 44278  52.9928  31.5427 0021550  46.8056 278.2254 15.89230743 38728
1 44278U 19029AV  20024.58334491  .00024198  11289-4  91752-4 0  9998
2 44278  52.9927  29.8450 0021586  47.6374  25.6049 15.89248291 38772
1 44278U 19029AV  20024.91667824  .00458701  89477-4  15404-2 0  9997
2 44278  52.9929  28.1450 0021439  49.5101 131.9934 15.89163083 38838
1 44278U 19029AV  20025.25001157  .00094521  14326-4  32431-3 0  9993
2 44278  52.9930  26.4488 0021663  50.1812 239.5754 15.89275910 38881
1 44278U 19029AV  20025.58335648  .00034869  11531-4  12669-3 0  9999
2 44278  52.9928  24.7508 0021657  51.0023 347.1055 15.89311847 38935
1 44278U 19029AV  20025.91667824  .00108976  15383-4  37184-3 0  9999
2 44278  52.9930  23.0511 0021480  52.8486  93.5202 15.89299141 38983
1 44278U 19029AV  20026.25001157  .00077344  13269-4  26661-3 0  9991
2 44278  52.9932  21.3551 0021637  53.5508 201.1569 15.89340087 39044
1 44278U 19029AV  20026.41667824  .00100521  14749-4  34329-3 0  9996
2 44278  52.9936  20.5065 0021646  53.8245  75.0702 15.89326729 39066
1 44278U 19029AV  20026.91667824  .00466901  92549-4  15575-2 0  9993
2 44278  52.9937  17.9569 0021496  56.4756  55.0046 15.89290527 39149
1 44278U 19029AV  20027.25001157  .00005123  11061-4  28295-4 0  9992
2 44278  52.9935  16.2608 0021702  56.7677 163.1214 15.89415226 39208
1 44278U 19029AV  20027.58334491 -.00009338  11048-4 -19179-4 0  9998
2 44278  52.9934  14.5620 0021623  57.8189 270.5076 15.89449789 39259
1 44278U 19029AV  20027.83334491  .00338934  53192-4  11285-2 0  9995
2 44278  52.9935  13.2867 0021561  59.4107 260.2872 15.89369361 39299
1 44278U 19029AV  20027.91667824  .00186508  23649-4  62456-3 0  9992
2 44278  52.9937  12.8620 0021552  59.6852  17.1222 15.89412146 39302
1 44278U 19029AV  20028.25001157  .00091498  14136-4  31133-3 0  9993
2 44278  52.9938  11.1659 0021760  60.1095 125.1916 15.89459252 39369
1 44278U 19029AV  20028.58334491  .00056260  12257-4  19546-3 0  9993
2 44278  52.9936   9.4669 0021651  61.2182 232.5964 15.89500592 39412
1 44278U 19029AV  20028.91667824  .00194951  24829-4  64996-3 0  9996
2 44278  52.9938   7.7674 0021591  63.1014 339.2750 15.89481883 39463
1 44278U 19029AV  20029.25001157  .00074707  13135-4  25537-3 0  9997
2 44278  52.9940   6.0710 0021718  63.3363  87.6197 15.89531661 39514
1 44278U 19029AV  20029.50001157 +.00041365 +11726-4 +14624-3 0  9998
2 44278 052.9943 004.7969 0021694 063.9681 078.4328 15.89565561039554
1 44278U 19029AV  20029.91667824  .00109034  15410-4  36649-3 0  9995
2 44278  52.9946   2.6718 0021635  66.2694 301.9511 15.89587900 39628
1 44278U 19029AV  20030.25001157  .00045808  11872-4  16021-3 0  9993
2 44278  52.9941   0.9752 0021730  66.7335  50.1852 15.89627104 39672
1 44278U 19029AV  20030.50002315  .00013496  11141-4  55094-4 0  9999
2 44278  52.9937 359.7006 0021659  67.6167  40.8994 15.89670502 39715
1 44278U 19029AV  20031.41667824  .00038090  11635-4  13437-3 0  9991
2 44278  52.9939 355.0293 0021603  70.4358 247.1751 15.89742724 39862
1 44278U 19029AV  20031.58334491  .00062760  12551-4  21387-3 0  9992
2 44278  52.9940 354.1786 0021556  71.4466 120.5830 15.89764259 39891
1 44278U 19029AV  20031.91667824 +.00012183 +11131-4 +50486-4 0  9998
2 44278 052.9941 352.4789 0021537 072.9890 227.9238 15.89810729001811
1 44278U 19029AV  20032.00001157  .00032208  11482-4  11491-3 0  9991
2 44278  52.9940 352.0548 0021506  73.2403 344.9009 15.89823641 39958
1 44278U 19029AV  20032.25001157  .00091843  14182-4  30695-3 0  9995
2 44278  52.9942 350.7819 0021576  73.5173 336.3331 15.89815046 39997
1 44278U 19029AV  20032.58334491  .00082210  13579-4  27531-3 0  9993
2 44278  52.9945 349.0810 0021468  74.8443  83.9536 15.89863487 40048
1 44278U 19029AV  20032.91667824  .00185666  23615-4  60734-3 0  9992
2 44278  52.9945 347.3810 0021536  76.4410 191.3489 15.89873254 40108
1 44278U 19029AV  20033.25001157  .00074343  13134-4  24952-3 0  9997
2 44278  52.9942 345.6835 0021625  76.8096 300.0128 15.89897891 40153
1 44278U 19029AV  20033.41667824 +.00126320 +16906-4 +41585-3 0  9998
2 44278 052.9936 344.8333 0021549 077.3386 174.0019 15.89915370001847
1 44278U 19029AV  20033.58334491  .00028435  11399-4  10207-3 0  9993
2 44278  52.9939 343.9824 0021458  78.3900  47.4956 15.89958687 40201
1 44278U 19029AV  20033.91667824  .00231171  30577-4  75054-3 0  9992
2 44278  52.9941 342.2824 0021463  80.0289 154.9597 15.89953206 40265
1 44278U 19029AV  20034.08334491  .00010191  11116-4  43646-4 0  9990
2 44278  52.9939 341.4338 0021468  79.9490  29.5963 15.90004608 40280
1 44278U 19029AV  20034.58334491  .00028092  11394-4  10058-3 0  9992
2 44278  52.9942 338.8832 0021354  81.7415  11.5459 15.90039150 40365
1 44278U 19029AV  20034.91667824 +.00087561 +13920-4 +28948-3 0  9998
2 44278 052.9942 337.1836 0021398 083.1563 119.3329 15.90068733001829
1 44278U 19029AV  20035.08335648  .00018243  11216-4  69039-4 0  9997
2 44278  52.9939 336.3347 0021384  83.2325 353.9373 15.90088779 40443
1 44278U 19029AV  20035.25001157  .00063885  12617-4  21413-3 0  9992
2 44278  52.9942 335.4855 0021400  83.4640 228.2714 15.90075818 40478
1 44278U 19029AV  20035.58334491  .00226804  29873-4  73199-3 0  9990
2 44278  52.9945 333.7833 0021272  85.2652 335.7377 15.90081953 40520
1 44278U 19029AV  20035.91667824 -.00021645  11169-4 -57382-4 0  9990
2 44278  52.9946 332.0833 0021407  86.2496  84.0407 15.90172717 40583
1 44278U 19029AV  20036.16667824  .00131429  17404-4  42737-3 0  9993
2 44278  52.9945 330.8098 0021409  86.5655  75.7335 15.90140789 40618
1 44278U 19029AV  20036.50001157  .00077521  13325-4  25588-3 0  9997
2 44278  52.9942 329.1084 0021316  88.1293 183.5240 15.90199351 40672
1 44278U 19029AV  20036.83334491  .00375359  63530-4  11994-2 0  9991
2 44278  52.9945 327.4076 0021351  90.0220 291.0343 15.90165080 40725
1 44278U 19029AV  20036.91667824 +.00286328 +41244-4 +91602-3 0  9999
2 44278 052.9945 326.9830 0021306 089.9962 048.4122 15.90193118001849
1 44278U 19029AV  20037.08334491  .00016232  11192-4  62127-4 0  9994
2 44278  52.9945 326.1341 0021349  89.7986 283.3253 15.90255844 40763
1 44278U 19029AV  20037.58334491 +.00111338 +15647-4 +36152-3 0  9999
2 44278 052.9949 323.5822 0021203 092.0648 265.2614 15.90266867001790
1 44278U 19029AV  20037.83334491  .00050192  12053-4  16854-3 0  9992
2 44278  52.9948 322.3070 0021269  92.9123 256.5280 15.90319086 40887
1 44278U 19029AV  20037.91667824  .00008062  11107-4  36253-4 0  9994
2 44278  52.9947 321.8825 0021196  93.0460  13.7777 15.90341495 40897
1 44278U 19029AV  20038.25001157  .00101488  14891-4  32952-3 0  9993
2 44278  52.9945 320.1835 0021105  93.5742 122.8161 15.90328732 40951
1 44278U 19029AV  20038.58334491  .00367070  61273-4  11644-2 0  9990
2 44278  52.9948 318.4807 0021144  95.4273 230.5625 15.90318062 41000
1 44278U 19029AV  20038.91667824 -.00018245  11138-4 -45969-4 0  9999
2 44278  52.9949 316.7808 0021165  96.1919 339.4117 15.90457000 41057
1 44278U 19029AV  20039.25001157  .00190030  24311-4  60478-3 0  9997
2 44278  52.9945 315.0815 0021068  96.8249  88.4675 15.90417533 41112
1 44278U 19029AV  20039.58334491  .00042627  11797-4  14366-3 0  9990
2 44278  52.9945 313.3787 0021075  98.7179 196.2877 15.90479262 41166
1 44278U 19029AV  20039.75001157  .00364780  60710-4  11499-2 0  9998
2 44278  52.9947 312.5281 0021114  99.7040  70.1707 15.90441976 41196
1 44278U 19029AV  20040.16667824  .00066067  12740-4  21612-3 0  9990
2 44278  52.9949 310.4045 0021042  99.9825 297.1128 15.90529626 41250
1 44278U 19029AV  20040.25001157 +.00193594 +24830-4 +61301-3 0  9999
2 44278 052.9946 309.9791 0020938 100.3514 054.1911 15.90514386001796
1 44278U 19029AV  20040.75001157  .00290439  42274-4  91240-3 0  9997
2 44278  52.9947 307.4256 0021061 102.8369  36.4560 15.90553059 41347
1 44278U 19029AV  20041.16667824  .00090480  14141-4  29067-3 0  9996
2 44278  52.9941 305.3015 0021011 103.1720 263.4890 15.90617305 41412
1 44278U 19029AV  20041.41667824  .00011967  11151-4  47719-4 0  9990
2 44278  52.9941 304.0240 0020881 104.5629 254.5075 15.90669893 41454
1 44278U 19029AV  20041.58334491 +.00261268 +36259-4 +82010-3 0  9998
2 44278 052.9939 303.1723 0020869 105.4005 128.6502 15.90599964001780
1 44278U 19029AV  20041.91667824  .00026880  11387-4  93547-4 0  9996
2 44278  52.9939 301.4724 0020911 106.0801 237.9111 15.90706650 41530
1 44278U 19029AV  20042.25001157  .00052383  12150-4  17201-3 0  9993
2 44278  52.9935 299.7716 0020800 106.7683 347.2143 15.90718064 41585
1 44278U 19029AV  20042.58334491  .00156715  20122-4  49343-3 0  9993
2 44278  52.9934 298.0682 0020858 108.7220  95.2934 15.90706609 41647
1 44278U 19029AV  20042.91667824 -.00010923  11090-4 -22762-4 0  9992
2 44278  52.9935 296.3681 0020786 109.4495 204.5996 15.90787242 41690
1 44278U 19029AV  20043.16667824  .00086779  13910-4  27722-3 0  9993
2 44278  52.9937 295.0928 0020695 109.8183 196.8001 15.90768495 41733
1 44278U 19029AV  20043.58334491  .00475045  97065-4  14755-2 0  9992
2 44278  52.9936 292.9630 0020691 112.0834  62.1785 15.90711355 41808
1 44278U 19029AV  20043.83334491  .00314699  47923-4  97632-3 0  9991
2 44278  52.9936 291.6878 0020714 112.6534  54.2002 15.90791869 41843
1 44278U 19029AV  20043.91667824 +.00077594 +13361-4 +24807-3 0  9992
2 44278 052.9933 291.2629 0020692 112.5816 171.8074 15.90841918001782
1 44278U 19029AV  20044.25001157 -.00014195  11113-4 -32632-4 0  9990
2 44278  52.9929 289.5611 0020579 113.4720 281.0823 15.90890065 41907
1 44278U 19029AV  20044.50001157  .00217948  28590-4  67882-3 0  9998
2 44278  52.9932 288.2830 0020651 115.0824 272.1235 15.90807379 41942
